APPLE                   
1 12545U 81057B   24129.54828064 -.00000333  00000+0  00000+0 0  9991
2 12545   8.8003 303.4622 0027418 200.6131  58.3505  1.00051426114688
